{
  "type": "FeatureCollection",
  "features": [
    {
      "type": "Feature",
      "properties": {
        "norad_id": 41599,
        "name": "CARTOSAT-2C",
        "group": "resource",
        "lat": -81.20174993128619,
        "lon": 114.30553436941157,
        "alt_km": 517.9427749358983,
        "timestamp": "2025-12-25T03:55:55.963641+00:00",
        "meta_object_name": "CARTOSAT-2C",
        "meta_object_id": "2016-040A",
        "meta_epoch": "2025-12-24T20:24:12.191040",
        "meta_mean_motion": 15.192201,
        "meta_eccentricity": 0.0010728,
        "meta_inclination": 97.4743,
        "meta_ra_of_asc_node": 55.9746,
        "meta_arg_of_pericenter": 24.6619,
        "meta_mean_anomaly": 335.5127,
        "meta_ephemeris_type": 0,
        "meta_classification_type": "U",
        "meta_norad_cat_id": 41599,
        "meta_element_set_no": 999,
        "meta_rev_at_epoch": 52724,
        "meta_bstar": 0.00018562,
        "meta_mean_motion_dot": 3.845e-05,
        "meta_mean_motion_ddot": 0,
        "tle_line1": "1 41599U 16040A   25358.85014110  .00003845  00000+0  18562-3 0  9996",
        "tle_line2": "2 41599  97.4743  55.9746 0010728  24.6619 335.5127 15.19220100527243"
      },
      "geometry": {
        "type": "Point",
        "coordinates": [
          114.30553436941157,
          -81.20174993128619
        ]
      }
    },
    {
      "type": "Feature",
      "properties": {
        "norad_id": 41601,
        "name": "SKYSAT-C1",
        "group": "resource",
        "lat": -31.739971173425104,
        "lon": -148.8701026532888,
        "alt_km": 473.877594011321,
        "timestamp": "2025-12-25T03:55:55.963652+00:00",
        "meta_object_name": "SKYSAT-C1",
        "meta_object_id": "2016-040C",
        "meta_epoch": "2025-12-24T14:28:34.441824",
        "meta_mean_motion": 15.32797932,
        "meta_eccentricity": 9.95e-05,
        "meta_inclination": 96.9804,
        "meta_ra_of_asc_node": 34.9474,
        "meta_arg_of_pericenter": 327.4396,
        "meta_mean_anomaly": 32.6785,
        "meta_ephemeris_type": 0,
        "meta_classification_type": "U",
        "meta_norad_cat_id": 41601,
        "meta_element_set_no": 999,
        "meta_rev_at_epoch": 53109,
        "meta_bstar": 0.00030447,
        "meta_mean_motion_dot": 9.574e-05,
        "meta_mean_motion_ddot": 0,
        "tle_line1": "1 41601U 16040C   25358.60317641  .00009574  00000+0  30447-3 0  9999",
        "tle_line2": "2 41601  96.9804  34.9474 0000995 327.4396  32.6785 15.32797932531095"
      },
      "geometry": {
        "type": "Point",
        "coordinates": [
          -148.8701026532888,
          -31.739971173425104
        ]
      }
    },
    {
      "type": "Feature",
      "properties": {
        "norad_id": 41603,
        "name": "LAPAN-A3",
        "group": "resource",
        "lat": -52.68481012741207,
        "lon": 5.738900670184079,
        "alt_km": 472.50260040534977,
        "timestamp": "2025-12-25T03:55:55.963662+00:00",
        "meta_object_name": "LAPAN-A3",
        "meta_object_id": "2016-040E",
        "meta_epoch": "2025-12-24T20:19:27.936768",
        "meta_mean_motion": 15.31648597,
        "meta_eccentricity": 0.000868,
        "meta_inclination": 97.1433,
        "meta_ra_of_asc_node": 355.963,
        "meta_arg_of_pericenter": 283.5677,
        "meta_mean_anomaly": 76.4598,
        "meta_ephemeris_type": 0,
        "meta_classification_type": "U",
        "meta_norad_cat_id": 41603,
        "meta_element_set_no": 999,
        "meta_rev_at_epoch": 52811,
        "meta_bstar": 0.00015151,
        "meta_mean_motion_dot": 4.56e-05,
        "meta_mean_motion_ddot": 0,
        "tle_line1": "1 41603U 16040E   25358.84685112  .00004560  00000+0  15151-3 0  9993",
        "tle_line2": "2 41603  97.1433 355.9630 0008680 283.5677  76.4598 15.31648597528119"
      },
      "geometry": {
        "type": "Point",
        "coordinates": [
          5.738900670184079,
          -52.68481012741207
        ]
      }
    },
    {
      "type": "Feature",
      "properties": {
        "norad_id": 41604,
        "name": "BIROS",
        "group": "resource",
        "lat": -47.08413178836727,
        "lon": 38.80535768973027,
        "alt_km": 298.4957670839085,
        "timestamp": "2025-12-25T03:55:55.963673+00:00",
        "meta_object_name": "BIROS",
        "meta_object_id": "2016-040F",
        "meta_epoch": "2025-12-24T13:04:12.806688",
        "meta_mean_motion": 15.94433858,
        "meta_eccentricity": 0.0003807,
        "meta_inclination": 97.0656,
        "meta_ra_of_asc_node": 30.4902,
        "meta_arg_of_pericenter": 125.9749,
        "meta_mean_anomaly": 234.1881,
        "meta_ephemeris_type": 0,
        "meta_classification_type": "U",
        "meta_norad_cat_id": 41604,
        "meta_element_set_no": 999,
        "meta_rev_at_epoch": 53060,
        "meta_bstar": 0.0006731,
        "meta_mean_motion_dot": 0.00251039,
        "meta_mean_motion_ddot": 2.6148e-05,
        "tle_line1": "1 41604U 16040F   25358.54459267  .00251039  26148-4  67310-3 0  9996",
        "tle_line2": "2 41604  97.0656  30.4902 0003807 125.9749 234.1881 15.94433858530604"
      },
      "geometry": {
        "type": "Point",
        "coordinates": [
          38.80535768973027,
          -47.08413178836727
        ]
      }
    },
    {
      "type": "Feature",
      "properties": {
        "norad_id": 41727,
        "name": "GAOFEN-3",
        "group": "resource",
        "lat": 52.26983676022421,
        "lon": -6.454399340923439,
        "alt_km": 745.5102254568155,
        "timestamp": "2025-12-25T03:55:55.963683+00:00",
        "meta_object_name": "GAOFEN-3",
        "meta_object_id": "2016-049A",
        "meta_epoch": "2025-12-24T21:01:36.120864",
        "meta_mean_motion": 14.42215773,
        "meta_eccentricity": 0.0001103,
        "meta_inclination": 98.4035,
        "meta_ra_of_asc_node": 4.2767,
        "meta_arg_of_pericenter": 56.8061,
        "meta_mean_anomaly": 303.3234,
        "meta_ephemeris_type": 0,
        "meta_classification_type": "U",
        "meta_norad_cat_id": 41727,
        "meta_element_set_no": 999,
        "meta_rev_at_epoch": 49352,
        "meta_bstar": -2.4031e-05,
        "meta_mean_motion_dot": -1.23e-06,
        "meta_mean_motion_ddot": 0,
        "tle_line1": "1 41727U 16049A   25358.87611251 -.00000123  00000+0 -24031-4 0  9996",
        "tle_line2": "2 41727  98.4035   4.2767 0001103  56.8061 303.3234 14.42215773493526"
      },
      "geometry": {
        "type": "Point",
        "coordinates": [
          -6.454399340923439,
          52.26983676022421
        ]
      }
    },
    {
      "type": "Feature",
      "properties": {
        "norad_id": 41771,
        "name": "SKYSAT-C4",
        "group": "resource",
        "lat": -41.051679598337735,
        "lon": -162.337547522556,
        "alt_km": 445.36047561380565,
        "timestamp": "2025-12-25T03:55:55.963694+00:00",
        "meta_object_name": "SKYSAT-C4",
        "meta_object_id": "2016-058B",
        "meta_epoch": "2025-12-24T19:11:29.832576",
        "meta_mean_motion": 15.42586627,
        "meta_eccentricity": 0.0002533,
        "meta_inclination": 96.9361,
        "meta_ra_of_asc_node": 23.4017,
        "meta_arg_of_pericenter": 124.0416,
        "meta_mean_anomaly": 236.1074,
        "meta_ephemeris_type": 0,
        "meta_classification_type": "U",
        "meta_norad_cat_id": 41771,
        "meta_element_set_no": 999,
        "meta_rev_at_epoch": 51853,
        "meta_bstar": 0.0003576,
        "meta_mean_motion_dot": 0.00015476,
        "meta_mean_motion_ddot": 0,
        "tle_line1": "1 41771U 16058B   25358.79965084  .00015476  00000+0  35760-3 0  9997",
        "tle_line2": "2 41771  96.9361  23.4017 0002533 124.0416 236.1074 15.42586627518535"
      },
      "geometry": {
        "type": "Point",
        "coordinates": [
          -162.337547522556,
          -41.051679598337735
        ]
      }
    },
    {
      "type": "Feature",
      "properties": {
        "norad_id": 41772,
        "name": "SKYSAT-C5",
        "group": "resource",
        "lat": 55.715246420385604,
        "lon": -127.10956723866231,
        "alt_km": 459.1841440195931,
        "timestamp": "2025-12-25T03:55:55.963704+00:00",
        "meta_object_name": "SKYSAT-C5",
        "meta_object_id": "2016-058C",
        "meta_epoch": "2025-12-24T16:26:12.494112",
        "meta_mean_motion": 15.34086313,
        "meta_eccentricity": 0.0003944,
        "meta_inclination": 97.0739,
        "meta_ra_of_asc_node": 41.9366,
        "meta_arg_of_pericenter": 233.2582,
        "meta_mean_anomaly": 126.83,
        "meta_ephemeris_type": 0,
        "meta_classification_type": "U",
        "meta_norad_cat_id": 41772,
        "meta_element_set_no": 999,
        "meta_rev_at_epoch": 51699,
        "meta_bstar": 0.00029732,
        "meta_mean_motion_dot": 9.736e-05,
        "meta_mean_motion_ddot": 0,
        "tle_line1": "1 41772U 16058C   25358.68486683  .00009736  00000+0  29732-3 0  9993",
        "tle_line2": "2 41772  97.0739  41.9366 0003944 233.2582 126.8300 15.34086313516996"
      },
      "geometry": {
        "type": "Point",
        "coordinates": [
          -127.10956723866231,
          55.715246420385604
        ]
      }
    }
  ]
}